{
    "links": {
        "self": "http://www.neowsapp.com/rest/v1/neo/3842902?api_key=iIulBulltgU6a56xZRHN4H3l9WmuAYTsLGpBGhQ2"
    },
    "id": "3842902",
    "neo_reference_id": "3842902",
    "name": "(2019 LN5)",
    "designation": "2019 LN5",
    "nasa_jpl_url": "http://ssd.jpl.nasa.gov/sbdb.cgi?sstr=3842902",
    "absolute_magnitude_h": 22.8,
    "estimated_diameter": {
        "kilometers": {
            "estimated_diameter_min": 0.0732073989,
            "estimated_diameter_max": 0.1636967205
        },
        "meters": {
            "estimated_diameter_min": 73.2073989347,
            "estimated_diameter_max": 163.696720474
        },
        "miles": {
            "estimated_diameter_min": 0.0454889547,
            "estimated_diameter_max": 0.1017163949
        },
        "feet": {
            "estimated_diameter_min": 240.181762721,
            "estimated_diameter_max": 537.0627483999
        }
    },
    "is_potentially_hazardous_asteroid": false,
    "close_approach_data": [
        {
            "close_approach_date": "2019-06-19",
            "close_approach_date_full": "2019-Jun-19 01:41",
            "epoch_date_close_approach": 1560908460000,
            "relative_velocity": {
                "kilometers_per_second": "6.7027922256",
                "kilometers_per_hour": "24130.0520122721",
                "miles_per_hour": "14993.4759295143"
            },
            "miss_distance": {
                "astronomical": "0.1548671444",
                "lunar": "60.2433191716",
                "kilometers": "23167794.935222428",
                "miles": "14395800.2306203864"
            },
            "orbiting_body": "Earth"
        }
    ],
    "orbital_data": {
        "orbit_id": "3",
        "orbit_determination_date": "2019-07-23 02:49:59",
        "first_observation_date": "2019-06-05",
        "last_observation_date": "2019-07-05",
        "data_arc_in_days": 30,
        "observations_used": 50,
        "orbit_uncertainty": "7",
        "minimum_orbit_intersection": ".15331",
        "jupiter_tisserand_invariant": "3.529",
        "epoch_osculation": "2459000.5",
        "eccentricity": ".4608876980595347",
        "semi_major_axis": "2.168291788790055",
        "inclination": "9.722082232939245",
        "ascending_node_longitude": "85.1558780057878",
        "orbital_period": "1166.205310213069",
        "perihelion_distance": "1.168952777533216",
        "perihelion_argument": "184.0327650560859",
        "aphelion_distance": "3.167630800046894",
        "perihelion_time": "2458654.218018607931",
        "mean_anomaly": "106.8949971410855",
        "mean_motion": ".3086935009189993",
        "equinox": "J2000",
        "orbit_class": {
            "orbit_class_type": "AMO",
            "orbit_class_description": "Near-Earth asteroid orbits similar to that of 1221 Amor",
            "orbit_class_range": "1.017 AU < q (perihelion) < 1.3 AU"
        }
    },
    "is_sentry_object": false
}